STARLINK-5764           
1 55602U 23020AK  26067.22126573  .00006149  00000+0  46910-3 0  9996
2 55602  43.0041   0.0348 0001077 296.8029  63.2703 15.02595794168843
CURIUM ONE              
1 60242U 24128H   26068.68697111  .00012574  00000+0  74107-3 0  9992
2 60242  61.9790 197.7537 0050891 110.7183 249.9377 15.10847276 91418
